{"version": 0.6, "generator": "Overpass API 0.7.62.8 e802775f", "osm3s": {"timestamp_osm_base": "2025-08-15T14:07:05Z", "copyright": "The data included in this document is from www.openstreetmap.org. The data is made available under ODbL."}, "elements": [{"type": "node", "id": 4700173709, "lat": -23.5618152, "lon": -46.6558205}, {"type": "node", "id": 4700173712, "lat": -23.561671, "lon": -46.6556694}, {"type": "node", "id": 12688381666, "lat": -23.5611808, "lon": -46.6561166}, {"type": "node", "id": 12688381667, "lat": -23.5616189, "lon": -46.6556147}, {"type": "node", "id": 12688381668, "lat": -23.5613734, "lon": -46.6563185}, {"type": "node", "id": 12688381674, "lat": -23.5616531, "lon": -46.6556506}, {"type": "node", "id": 12688381679, "lat": -23.5612122, "lon": -46.6561495}, {"type": "node", "id": 12688381682, "lat": -23.56123, "lon": -46.6561682}, {"type": "node", "id": 12688381683, "lat": -23.5613276, "lon": -46.6562705}, {"type": "node", "id": 12688381686, "lat": -23.5613461, "lon": -46.6562899}, {"type": "way", "id": 1370081491, "nodes": [12688381666, 12688381667, 12688381674, 4700173712, 4700173709, 12688381668, 12688381686, 12688381683, 12688381682, 12688381679, 12688381666], "tags": {"addr:city": "S\u00e3o Paulo", "addr:housenumber": "1578", "addr:postcode": "01310-200", "addr:street": "Av. Paulista", "addr:suburb": "Bela Vista", "building": "yes", "building:colour": "#e6e6e6", "building:material": "concrete", "email": "atendimento@masp.org.br", "layer": "1", "min_height": "10,63", "museum": "art", "name": "Museu de Arte de S\u00e3o Paulo", "name:en": "S\u00e3o Paulo Museum of Art", "name:es": "Museo de Arte de S\u00e3o Paulo", "official_name": "Museu de Arte de S\u00e3o Paulo Assis Chateaubriand", "opening_hours": "Tu-Su 10:00-18:00; Th 10:00-20:00", "phone": "+55 11 3251-5644", "short_name": "MASP", "start_date": "1947", "tourism": "museum", "website": "http://masp.art.br/", "wikidata": "Q82941", "wikimedia_commons": "Category:Museu de Arte de S\u00e3o Paulo", "wikipedia": "pt:Museu de Arte de S\u00e3o Paulo"}}]}