{"version": 0.6, "generator": "Overpass API 0.7.62.8 e802775f", "osm3s": {"timestamp_osm_base": "2025-08-15T14:35:45Z", "copyright": "The data included in this document is from www.openstreetmap.org. The data is made available under ODbL."}, "elements": [{"type": "node", "id": 4053847219, "lat": -23.5475576, "lon": -46.4302895}, {"type": "node", "id": 4053847951, "lat": -23.5474146, "lon": -46.4299228}, {"type": "node", "id": 4053847952, "lat": -23.547331, "lon": -46.4296196}, {"type": "node", "id": 4053847953, "lat": -23.5474954, "lon": -46.4292728}, {"type": "node", "id": 4053847954, "lat": -23.5473671, "lon": -46.4288163}, {"type": "node", "id": 5373761757, "lat": -23.548531, "lon": -46.4303171}, {"type": "node", "id": 5373761758, "lat": -23.5475882, "lon": -46.4306741}, {"type": "node", "id": 5373761759, "lat": -23.548338, "lon": -46.4295421}, {"type": "node", "id": 5373773883, "lat": -23.546661, "lon": -46.4290484}, {"type": "node", "id": 5373773884, "lat": -23.5469735, "lon": -46.4300762}, {"type": "node", "id": 6875725121, "lat": -23.5475418, "lon": -46.430508}, {"type": "node", "id": 6875725123, "lat": -23.5476066, "lon": -46.4304393}, {"type": "node", "id": 6875776103, "lat": -23.5466219, "lon": -46.4287176}, {"type": "node", "id": 6875776104, "lat": -23.5479251, "lon": -46.4282697}, {"type": "node", "id": 6875776105, "lat": -23.5479859, "lon": -46.4284802}, {"type": "node", "id": 6875776106, "lat": -23.5466827, "lon": -46.4289281}, {"type": "node", "id": 10905805795, "lat": -23.5478733, "lon": -46.4279926}, {"type": "node", "id": 10905805796, "lat": -23.5478537, "lon": -46.4279773}, {"type": "node", "id": 10905805797, "lat": -23.5470157, "lon": -46.4277747}, {"type": "node", "id": 10905805798, "lat": -23.5462545, "lon": -46.4275873}, {"type": "node", "id": 10905805799, "lat": -23.5462364, "lon": -46.4275949}, {"type": "node", "id": 10905805800, "lat": -23.5462238, "lon": -46.4276086}, {"type": "node", "id": 10905805801, "lat": -23.5472513, "lon": -46.4287327}, {"type": "node", "id": 10905805802, "lat": -23.5471941, "lon": -46.428521}, {"type": "node", "id": 10905805803, "lat": -23.5470727, "lon": -46.428431}, {"type": "node", "id": 10905805804, "lat": -23.547285, "lon": -46.4288433}, {"type": "node", "id": 10905809905, "lat": -23.5471057, "lon": -46.4277964, "tags": {"addr:city": "S\u00e3o Paulo", "addr:housenumber": "194", "addr:postcode": "08420-690", "addr:street": "Rua Professora Lucila Cerqueira", "entrance": "yes"}}, {"type": "node", "id": 10905809908, "lat": -23.5468172, "lon": -46.4295623, "tags": {"addr:city": "Sao Paulo", "addr:housenumber": "195", "addr:postcode": "08420-650", "addr:street": "Rua Lu\u00eds Medeiros da Silva", "entrance": "yes"}}, {"type": "node", "id": 10905809909, "lat": -23.5485061, "lon": -46.430339}, {"type": "node", "id": 10905809910, "lat": -23.5485394, "lon": -46.4302647}, {"type": "node", "id": 10905809924, "lat": -23.5484601, "lon": -46.4299803, "tags": {"addr:city": "S\u00e3o Paulo", "addr:housenumber": "370", "addr:street": "Rua Silvan\u00f3polis", "entrance": "yes"}}, {"type": "way", "id": 402991536, "nodes": [4053847219, 5373761759, 10905809924, 10905809910, 5373761757, 10905809909, 5373761758, 6875725121, 6875725123, 4053847219], "tags": {"addr:city": "Sao Paulo", "addr:housenumber": "370", "addr:postcode": "08420-680", "addr:street": "Rua Silvan\u00f3polis", "addr:suburb": "Itaquera", "amenity": "clinic", "barrier": "fence", "healthcare": "clinic", "healthcare:speciality": "general;vaccination;paediatrics", "name": "Unidade B\u00e1sica de Sa\u00fade Franciso Ant\u00f4nio Cesaroni", "operator": "Secretaria de Sa\u00fade", "operator:ref:vatin": "BR46392130000380", "operator:type": "government", "phone": "+55 11 2552-5355;+55 11 2557-8938", "ref:CNES": "4049942", "short_name": "UBS Jardim S\u00e3o Pedro"}}, {"type": "way", "id": 402991674, "nodes": [5373773884, 4053847951, 4053847952, 4053847953, 4053847954, 10905805804, 5373773883, 10905809908, 5373773884], "tags": {"addr:city": "Sao Paulo", "addr:housenumber": "195", "addr:postcode": "08420-650", "addr:street": "Rua Luis Medeiros da Silva", "addr:suburb": "Jardim S\u00e3o Pedro", "amenity": "school", "barrier": "wall", "official_name": "Escola Municipal de Ensino Fundamental Benedito Calixto", "phone": "+55 11 2557-1982", "religion": "none", "short_name": "EMEF Benedito Calixto"}}, {"type": "way", "id": 734205910, "nodes": [6875776106, 6875776103, 10905805802, 6875776104, 6875776105, 10905805801, 6875776106], "tags": {"building": "school", "height": "11"}}, {"type": "way", "id": 1173756275, "nodes": [10905805797, 10905805798, 10905805799, 10905805800, 5373773883], "tags": {"barrier": "fence"}}, {"type": "way", "id": 1173756276, "nodes": [5373761759, 4053847219, 4053847951, 4053847952, 4053847953, 4053847954, 10905805804, 10905805802], "tags": {"barrier": "wall"}}, {"type": "way", "id": 1173756277, "nodes": [5373773883, 10905805804, 10905805801, 10905805802, 10905805803]}, {"type": "way", "id": 1173756278, "nodes": [10905805803, 10905805797]}, {"type": "way", "id": 1173756279, "nodes": [10905805802, 10905805803, 10905805797]}, {"type": "way", "id": 1173756280, "nodes": [10905805797, 10905809905, 10905805796, 10905805795, 5373761759], "tags": {"barrier": "fence"}}, {"type": "relation", "id": 15867294, "members": [{"type": "way", "ref": 1173756278, "role": "outer"}, {"type": "way", "ref": 1173756275, "role": "outer"}, {"type": "way", "ref": 1173756277, "role": "outer"}], "tags": {"addr:city": "S\u00e3o Paulo", "addr:housenumber": "124", "addr:postcode": "08420-690", "addr:street": "Rua Professora Lucila Cerqueira", "addr:suburb": "Jardim S\u00e3o Pedro", "amenity": "school", "name": "CEU S\u00e3o Pedro", "type": "multipolygon"}}, {"type": "relation", "id": 15867295, "members": [{"type": "way", "ref": 1173756280, "role": "outer"}, {"type": "way", "ref": 1173756276, "role": "outer"}, {"type": "way", "ref": 1173756279, "role": "outer"}], "tags": {"addr:city": "S\u00e3o Paulo", "addr:housenumber": "194", "addr:postcode": "08420-690", "addr:street": "Rua Professora Lucila Cerqueira", "addr:suburb": "Jardim S\u00e3o Pedro", "amenity": "school", "name": "CEU  Jos\u00e9 Bonif\u00e1cio", "type": "multipolygon"}}]}